THORAD AGENA D DEB      
1 04735U 70025CJ  26064.24995979  .06791631  13744+0  14291-1 0  9994
2 04735  99.5846  76.8615 0011376 181.1558 178.9691 16.05906055880624
COSMOS 886 DEB          
1 14501U 76126BN  26064.43185505  .08967905  67923-5  47049-2 0  9994
2 14501  65.5928 307.6976 0017078 206.5599 153.4711 16.19434659149997
CZ-4 DEB                
1 20898U 90081BJ  26064.16648561  .03164816  11222-1  88888-2 0  9990
2 20898  98.0811 153.7267 0013302 288.6184  71.3645 15.96222891867432
CZ-2D DEB               
1 31409U 05024J   26060.90543068  .00239460  23346-4  72484-3 0  9991
2 31409  97.1482 103.0739 0004089 145.2826 214.8716 15.92111318117181
ZIYUAN 3-01 (ZY 3-01)   
1 38046U 12001A   26064.75035354  .00440648  84628-4  89914-3 0  9997
2 38046  97.1559 139.4311 0002325 249.3348 110.7682 15.99445301788072
HUMSAT-D                
1 39433U 13066T   26064.56306400  .01368507  11269-2  20709-2 0  9991
2 39433  97.4819  77.3570 0007241 171.1982 188.9427 16.04803274670809
SPACEBEE-7              
1 43816U 18099BL  26064.68147534  .02175285  51972-2  20626-2 0  9999
2 43816  97.4350 151.3793 0008666 275.9888  84.0410 16.13211931398571
STARLINK-1298           
1 45413U 20019BF  26064.75001156  .00232756  31884-4  62924-3 0  9991
2 45413  53.0348  74.0900 0007013   6.5280 120.7411 15.93837120  5981
STARLINK-1398           
1 45699U 20035AU  26064.75001156  .00269763  38629-4  77965-3 0  9998
2 45699  53.0369 319.3793 0004048 155.3354 178.7923 15.92564482  5961
STARLINK-1484           
1 45756U 20038AC  26064.75001156  .00431423  90304-4  85100-3 0  9997
2 45756  52.9984  76.9810 0006632  47.0482 164.3052 15.99461304  5928
STARLINK-1587           
1 46157U 20057AS  26064.75001156  .00418918  79094-4  11922-2 0  9991
2 46157  53.0318 236.5080 0003596 271.2270 172.5244 15.92784916  6028
