[{"OBJECT_NAME":"THORAD AGENA D DEB","OBJECT_ID":"1970-025CJ","EPOCH":"2026-03-05T05:59:56.525856","MEAN_MOTION":16.05906055,"ECCENTRICITY":0.0011376,"INCLINATION":99.5846,"RA_OF_ASC_NODE":76.8615,"ARG_OF_PERICENTER":181.1558,"MEAN_ANOMALY":178.9691,"EPHEMERIS_TYPE":0,"CLASSIFICATION_TYPE":"U","NORAD_CAT_ID":4735,"ELEMENT_SET_NO":999,"REV_AT_EPOCH":88062,"BSTAR":0.014291,"MEAN_MOTION_DOT":0.06791631,"MEAN_MOTION_DDOT":0.13744},{"OBJECT_NAME":"COSMOS 886 DEB","OBJECT_ID":"1976-126BN","EPOCH":"2026-03-05T10:21:52.276320","MEAN_MOTION":16.19434659,"ECCENTRICITY":0.0017078,"INCLINATION":65.5928,"RA_OF_ASC_NODE":307.6976,"ARG_OF_PERICENTER":206.5599,"MEAN_ANOMALY":153.4711,"EPHEMERIS_TYPE":0,"CLASSIFICATION_TYPE":"U","NORAD_CAT_ID":14501,"ELEMENT_SET_NO":999,"REV_AT_EPOCH":14999,"BSTAR":0.0047049,"MEAN_MOTION_DOT":0.08967905,"MEAN_MOTION_DDOT":6.7923e-6},{"OBJECT_NAME":"CZ-4 DEB","OBJECT_ID":"1990-081BJ","EPOCH":"2026-03-05T03:59:44.356704","MEAN_MOTION":15.96222891,"ECCENTRICITY":0.00133024,"INCLINATION":98.0811,"RA_OF_ASC_NODE":153.7267,"ARG_OF_PERICENTER":288.6184,"MEAN_ANOMALY":71.3645,"EPHEMERIS_TYPE":0,"CLASSIFICATION_TYPE":"U","NORAD_CAT_ID":20898,"ELEMENT_SET_NO":999,"REV_AT_EPOCH":86743,"BSTAR":0.0088887513,"MEAN_MOTION_DOT":0.03164816,"MEAN_MOTION_DDOT":0.01122233},{"OBJECT_NAME":"CZ-2D DEB","OBJECT_ID":"2005-024J","EPOCH":"2026-03-01T21:43:49.210752","MEAN_MOTION":15.92111318,"ECCENTRICITY":0.0004089,"INCLINATION":97.1482,"RA_OF_ASC_NODE":103.0739,"ARG_OF_PERICENTER":145.2826,"MEAN_ANOMALY":214.8716,"EPHEMERIS_TYPE":0,"CLASSIFICATION_TYPE":"U","NORAD_CAT_ID":31409,"ELEMENT_SET_NO":999,"REV_AT_EPOCH":11718,"BSTAR":0.00072484,"MEAN_MOTION_DOT":0.0023946,"MEAN_MOTION_DDOT":2.3346e-5},{"OBJECT_NAME":"ZIYUAN 3-01 (ZY 3-01)","OBJECT_ID":"2012-001A","EPOCH":"2026-03-05T18:00:30.545856","MEAN_MOTION":15.99445301,"ECCENTRICITY":0.0002325,"INCLINATION":97.1559,"RA_OF_ASC_NODE":139.4311,"ARG_OF_PERICENTER":249.3348,"MEAN_ANOMALY":110.7682,"EPHEMERIS_TYPE":0,"CLASSIFICATION_TYPE":"U","NORAD_CAT_ID":38046,"ELEMENT_SET_NO":999,"REV_AT_EPOCH":78807,"BSTAR":0.00089914,"MEAN_MOTION_DOT":0.00440648,"MEAN_MOTION_DDOT":8.4628e-5},{"OBJECT_NAME":"HUMSAT-D","OBJECT_ID":"2013-066T","EPOCH":"2026-03-05T13:30:48.729600","MEAN_MOTION":16.04803274,"ECCENTRICITY":0.0007241,"INCLINATION":97.4819,"RA_OF_ASC_NODE":77.357,"ARG_OF_PERICENTER":171.1982,"MEAN_ANOMALY":188.9427,"EPHEMERIS_TYPE":0,"CLASSIFICATION_TYPE":"U","NORAD_CAT_ID":39433,"ELEMENT_SET_NO":999,"REV_AT_EPOCH":67080,"BSTAR":0.0020709,"MEAN_MOTION_DOT":0.01368507,"MEAN_MOTION_DDOT":0.0011269},{"OBJECT_NAME":"SPACEBEE-7","OBJECT_ID":"2018-099BL","EPOCH":"2026-03-05T16:21:19.469376","MEAN_MOTION":16.13211931,"ECCENTRICITY":0.0008666,"INCLINATION":97.435,"RA_OF_ASC_NODE":151.3793,"ARG_OF_PERICENTER":275.9888,"MEAN_ANOMALY":84.041,"EPHEMERIS_TYPE":0,"CLASSIFICATION_TYPE":"U","NORAD_CAT_ID":43816,"ELEMENT_SET_NO":999,"REV_AT_EPOCH":39857,"BSTAR":0.0020626,"MEAN_MOTION_DOT":0.02175285,"MEAN_MOTION_DDOT":0.0051972},{"OBJECT_NAME":"STARLINK-1298","OBJECT_ID":"2020-019BF","EPOCH":"2026-03-05T18:00:00.998784","MEAN_MOTION":15.9383712,"ECCENTRICITY":0.0007013,"INCLINATION":53.0348,"RA_OF_ASC_NODE":74.09,"ARG_OF_PERICENTER":6.528,"MEAN_ANOMALY":120.7411,"EPHEMERIS_TYPE":0,"CLASSIFICATION_TYPE":"U","NORAD_CAT_ID":45413,"ELEMENT_SET_NO":999,"REV_AT_EPOCH":598,"BSTAR":0.00062924,"MEAN_MOTION_DOT":0.00232756,"MEAN_MOTION_DDOT":3.1884e-5},{"OBJECT_NAME":"STARLINK-1398","OBJECT_ID":"2020-035AU","EPOCH":"2026-03-05T18:00:00.998784","MEAN_MOTION":15.92564482,"ECCENTRICITY":0.0004048,"INCLINATION":53.0369,"RA_OF_ASC_NODE":319.3793,"ARG_OF_PERICENTER":155.3354,"MEAN_ANOMALY":178.7923,"EPHEMERIS_TYPE":0,"CLASSIFICATION_TYPE":"U","NORAD_CAT_ID":45699,"ELEMENT_SET_NO":999,"REV_AT_EPOCH":596,"BSTAR":0.00077965,"MEAN_MOTION_DOT":0.00269763,"MEAN_MOTION_DDOT":3.8629e-5},{"OBJECT_NAME":"STARLINK-1484","OBJECT_ID":"2020-038AC","EPOCH":"2026-03-05T18:00:00.998784","MEAN_MOTION":15.99461304,"ECCENTRICITY":0.0006632,"INCLINATION":52.9984,"RA_OF_ASC_NODE":76.981,"ARG_OF_PERICENTER":47.0482,"MEAN_ANOMALY":164.3052,"EPHEMERIS_TYPE":0,"CLASSIFICATION_TYPE":"U","NORAD_CAT_ID":45756,"ELEMENT_SET_NO":999,"REV_AT_EPOCH":592,"BSTAR":0.000851,"MEAN_MOTION_DOT":0.00431423,"MEAN_MOTION_DDOT":9.0304e-5},{"OBJECT_NAME":"STARLINK-1587","OBJECT_ID":"2020-057AS","EPOCH":"2026-03-05T18:00:00.998784","MEAN_MOTION":15.92784916,"ECCENTRICITY":0.0003596,"INCLINATION":53.0318,"RA_OF_ASC_NODE":236.508,"ARG_OF_PERICENTER":271.227,"MEAN_ANOMALY":172.5244,"EPHEMERIS_TYPE":0,"CLASSIFICATION_TYPE":"U","NORAD_CAT_ID":46157,"ELEMENT_SET_NO":999,"REV_AT_EPOCH":602,"BSTAR":0.0011922,"MEAN_MOTION_DOT":0.00418918,"MEAN_MOTION_DDOT":7.9094e-5}]
